HST                     
1 20580U 90037B   26161.23228164  .00005211  00000+0  16320-3 0  9991
2 20580  28.4709 128.1050 0001976  72.5591 287.5221 15.30670250787509
POLAR                   
1 23802U 96013A   26161.10497356  .00000119  00000+0  00000+0 0  9994
2 23802  79.8450 227.1351 6463548 209.3248  89.4153  1.29846146144768
SWAS                    
1 25560U 98071A   26160.66069264  .00003594  00000+0  22956-3 0  9994
2 25560  69.8963 246.9275 0008950 266.7504  93.2636 15.09580136496138
CXO                     
1 25867U 99040B   26164.08641897  .00000611  00000+0  00000+0 0  9998
2 25867  56.1211 116.7320 7849026 310.2825   0.0985  0.37806491 17304
XMM-NEWTON              
1 25989U 99066A   26161.36780906  .00000089  00000+0  00000+0 0  9993
2 25989  64.5271 283.0748 4677764  65.0342   0.0416  0.50122831 22976
TERRA                   
1 25994U 99068A   26161.23984476  .00000316  00000+0  73348-4 0  9998
2 25994  97.9458 211.0613 0001066 220.2059 211.9075 14.61097506408590
CLUSTER II-FM7 (SAMBA)  
1 26410U 00041A   26161.44626665  .00004459  00000+0  00000+0 0  9993
2 26410 149.9132  49.6129 9048191 266.6863 359.9829  0.44840364 20284
CLUSTER II-FM8 (TANGO)  
1 26464U 00045B   26159.43359147  .00004389  00000+0  00000+0 0  9992
2 26464 150.1534  50.2668 9049658 267.1780   3.1902  0.44405778 20277
ODIN                    
1 26702U 01007A   26161.10404601  .00158373  00000+0  11212-2 0  9992
2 26702  97.3861 201.6016 0006401 152.1226 208.0382 15.73483587388282
TIMED                   
1 26998U 01055B   26160.98312636  .00001173  00000+0  11004-3 0  9998
2 26998  74.0678 249.5233 0000715 349.0826  11.0343 14.95279233329743
CORIOLIS                
1 27640U 03001A   26161.29160187  .00000086  00000+0  61219-4 0  9999
2 27640  98.7126 168.2816 0013046 229.7888 130.2147 14.19942934213240
SORCE                   
1 27651U 03004A   26161.09959068  .00002562  00000+0  19410-3 0  9992
2 27651  39.9916 302.1148 0017514 356.8212   3.2468 15.03675394270830
MOST                    
1 27843U 03031D   26161.31240170  .00000060  00000+0  47577-4 0  9994
2 27843  98.7045 169.1343 0008674 272.8878  87.1306 14.21321067189733
SCISAT 1                
1 27858U 03036A   26161.20253806  .00000460  00000+0  63445-4 0  9999
2 27858  73.9285 185.2206 0008673 254.3847 105.6372 14.81440789230417
SWIFT                   
1 28485U 04047A   26160.80720722  .00060185  00000+0  51552-3 0  9995
2 28485  20.5518 241.7982 0002239 174.3628 185.6843 15.67639100185704
HINODE (SOLAR-B)        
1 29479U 06041A   26161.30403800  .00000631  00000+0  11684-3 0  9998
2 29479  98.0549 177.5580 0016297 313.4054  46.5794 14.68613539 53869
SHIJIAN-6 02A (SJ-6 02A)
1 29505U 06046A   26161.29713397  .00004914  00000+0  25313-3 0  9998
2 29505  97.6371 202.3120 0004062 140.4062 219.7468 15.16860729 71229
SHIJIAN-6 02B (SJ-6 02B)
1 29506U 06046B   26161.28171090  .00001169  00000+0  95233-4 0  9994
2 29506  97.7165 190.3831 0014898  80.3037 279.9869 15.01359244 69701
FGRST (GLAST)           
1 33053U 08029A   26160.96042652  .00003115  00000+0  11169-3 0  9992
2 33053  25.5821 254.6609 0007691 239.1816 120.7966 15.23913533994732
SDO                     
1 36395U 10005A   26160.45717389 -.00000063  00000+0  00000+0 0  9999
2 36395  34.6348  86.4608 0001571  53.7612 180.1782  1.00270666 59982
CRYOSAT 2               
1 36508U 10013A   26161.32732416  .00000105  00000+0  25412-4 0  9994
2 36508  92.0349 275.6344 0002208  86.8919 273.2541 14.51896968857084
X-SAT                   
1 37389U 11015C   26161.20498872  .00000216  00000+0  10945-3 0  9994
2 37389  98.3509 138.5613 0014405   8.8893 351.2540 14.25204623786687
GCOM-W1 (SHIZUKU)       
1 38337U 12025A   26161.09004700  .00000408  00000+0  10063-3 0  9994
2 38337  98.2021 101.7532 0001853  80.1566 303.4658 14.57118028748005
NUSTAR                  
1 38358U 12031A   26161.33335648  .00020486  00000+0  12098-2 0  9996
2 38358   6.0268  85.5329 0007537 355.9551 203.5704 15.08730400  1301
NEOSSAT                 
1 39089U 13009D   26161.24085863  .00000130  00000+0  59656-4 0  9992
2 39089  98.4176 341.4389 0009780 267.0777  92.9290 14.35823958695748
BRITE-AUSTRIA           
1 39091U 13009F   26161.31259207  .00000151  00000+0  66105-4 0  9998
2 39091  98.3993 340.9187 0008976 259.7198 100.2977 14.36539349696068
IRIS                    
1 39197U 13033A   26161.09404953  .00000907  00000+0  11004-3 0  9993
2 39197  97.9335   0.3933 0024087 345.6673  14.3856 14.85871082699320
HISAKI (SPRINT-A)       
1 39253U 13049A   26160.98459174  .00000121  00000+0  75873-4 0  9998
2 39253  29.7201 256.6319 0136902 318.4771  40.5470 13.55543903630444
CASSIOPE                
1 39265U 13055A   26161.27208286  .00042872 -55906-6  47181-3 0  9999
2 39265  80.9146  75.1134 0295086  85.6269 277.8614 15.24552928666615
STSAT-3                 
1 39422U 13066G   26161.25433622  .00004090  00000+0  31036-3 0  9997
2 39422  97.6215 131.2544 0011064  63.2597 296.9759 15.02718001683162
SWARM B                 
1 39451U 13067A   26161.25971868  .00003022  00000+0  10774-3 0  9999
2 39451  87.7439 344.4223 0003385  89.5268 270.6369 15.28509256682182
